NORAD_CAT_ID,OBJECT_NAME,OBJECT_TYPE,EPOCH,MEAN_MOTION,ECCENTRICITY,INCLINATION,RA_OF_ASC_NODE,ARG_OF_PERICENTER,MEAN_ANOMALY,BSTAR,MEAN_MOTION_DOT,MEAN_MOTION_DDOT,TLE_LINE0,TLE_LINE1,TLE_LINE2,SEMIMAJOR_AXIS,PERIOD,APOGEE,PERIGEE,DECAYED
44767,STARLINK-1062,PAYLOAD,2022-03-11 12:00:48,15.06398533,0.0001749,53.055,297.1653,54.9368,305.1785,-1.8849e-05,-5.62e-06,0.0,0 STARLINK-1062,1 44767U 19074BG  22070.50055647 -.00000562  00000-0 -18849-4 0  9991,2 44767  53.0550 297.1653 0001749  54.9368 305.1785 15.06398533128268,6925.353,95.592,548.429,546.007,0.0
44767,STARLINK-1062,PAYLOAD,2022-03-11 21:34:01,15.06409018,0.0001612,53.0543,295.3762,60.9244,299.1906,2.4846e-05,8.9e-07,0.0,0 STARLINK-1062,1 44767U 19074BG  22070.89862731  .00000089  00000-0  24846-4 0  9999,2 44767  53.0543 295.3762 0001612  60.9244 299.1906 15.06409018128325,6925.321,95.592,548.302,546.07,0.0
44767,STARLINK-1062,PAYLOAD,2022-03-11 23:09:33,15.06408488,0.0001635,53.0543,295.0785,59.00100000000001,301.1139,6.1537e-05,6.35e-06,0.0,0 STARLINK-1062,1 44767U 19074BG  22070.96497347  .00000635  00000-0  61537-4 0  9999,2 44767  53.0543 295.0785 0001635  59.0010 301.1139 15.06408488128504,6925.323,95.592,548.32,546.055,0.0
44767,STARLINK-1062,PAYLOAD,2022-03-12 10:18:19,15.06411564,0.0001688,53.0543,292.9936,61.8408,298.2751,0.00018055,2.410000000000001e-05,0.0,0 STARLINK-1062,1 44767U 19074BG  22071.42939472  .00002410  00000-0  18055-3 0  9990,2 44767  53.0543 292.9936 0001688  61.8408 298.2751 15.06411564128402,6925.313,95.591,548.347,546.009,0.0
44767,STARLINK-1062,PAYLOAD,2022-03-12 21:27:06,15.06402013,0.0001649,53.0542,290.9083,62.8164,297.2993,0.0001026,1.247e-05,0.0,0 STARLINK-1062,1 44767U 19074BG  22071.89382824  .00001247  00000-0  10260-3 0  9991,2 44767  53.0542 290.9083 0001649  62.8164 297.2993 15.06402013128472,6925.342,95.592,548.349,546.065,0.0
44767,STARLINK-1062,PAYLOAD,2022-03-13 00:38:11,15.06406546,0.0001774,53.0541,290.3125,61.2641,298.8526,7.08e-05,7.73e-06,0.0,0 STARLINK-1062,1 44767U 19074BG  22072.02651907  .00000773  00000-0  70800-4 0  9998,2 44767  53.0541 290.3125 0001774  61.2641 298.8526 15.06406546128669,6925.328,95.592,548.422,545.965,0.0
44767,STARLINK-1062,PAYLOAD,2022-03-13 07:00:21,15.06399256,0.0001688,53.0541,289.1208,62.1805,297.9354,0.00012688,1.609e-05,0.0,0 STARLINK-1062,1 44767U 19074BG  22072.29191028  .00001609  00000-0  12688-3 0  9998,2 44767  53.0541 289.1208 0001688  62.1805 297.9354 15.06399256128706,6925.351,95.592,548.385,546.047,0.0
44767,STARLINK-1062,PAYLOAD,2022-03-13 11:46:58,15.06396043,0.0001619,53.0539,288.2272,63.9877,296.1278,8.1863e-06,-1.6e-06,0.0,0 STARLINK-1062,1 44767U 19074BG  22072.49095553 -.00000160  00000-0  81863-5 0  9991,2 44767  53.0539 288.2272 0001619  63.9877 296.1278 15.06396043128567,6925.361,95.592,548.347,546.104,0.0
44767,STARLINK-1062,PAYLOAD,2022-03-13 21:20:13,15.06386273,0.0001658,53.054,286.4405,62.6117,297.504,-7.1549e-05,-1.347e-05,0.0,0 STARLINK-1062,1 44767U 19074BG  22072.88904743 -.00001347  00000-0 -71549-4 0  9992,2 44767  53.0540 286.4405 0001658  62.6117 297.5040 15.06386273128794,6925.391,95.593,548.404,546.107,0.0
44767,STARLINK-1062,PAYLOAD,2022-03-14 11:40:04,15.06393345,0.0001682,53.0529,283.7599,63.6034,296.5127,-8.4813e-06,-4.08e-06,0.0,0 STARLINK-1062,1 44767U 19074BG  22073.48616007 -.00000408  00000-0 -84813-5 0  9998,2 44767  53.0529 283.7599 0001682  63.6034 296.5127 15.06393345128884,6925.369000000002,95.593,548.399,546.069,0.0
44767,STARLINK-1062,PAYLOAD,2022-03-14 13:15:36,15.06394696,0.0001701,53.053,283.4617,63.1526,296.9636,2.2132e-05,4.8e-07,0.0,0 STARLINK-1062,1 44767U 19074BG  22073.55250672  .00000048  00000-0  22132-4 0  9991,2 44767  53.0530 283.4617 0001701  63.1526 296.9636 15.06394696128729,6925.365,95.592,548.408,546.052,0.0
44767,STARLINK-1062,PAYLOAD,2022-03-14 19:37:46,15.06396833,0.0001702,53.0528,282.2705,63.8948,296.2216,0.00016638,2.197e-05,0.0,0 STARLINK-1062,1 44767U 19074BG  22073.81789454  .00002197  00000-0  16638-3 0  9995,2 44767  53.0528 282.2705 0001702  63.8948 296.2216 15.06396833128763,6925.358,95.592,548.4019999999998,546.045,0.0
44767,STARLINK-1062,PAYLOAD,2022-03-14 21:13:18,15.06397011,0.0001724,53.0528,281.9728,62.5642,297.5523,0.00018597,2.489e-05,0.0,0 STARLINK-1062,1 44767U 19074BG  22073.88424189  .00002489  00000-0  18597-3 0  9993,2 44767  53.0528 281.9728 0001724  62.5642 297.5523 15.06397011128770,6925.358,95.592,548.4169999999998,546.029,0.0
44767,STARLINK-1062,PAYLOAD,2022-03-15 21:06:24,15.06390655,0.0001672,53.0519,277.5053,63.8695,296.2466,8.674299999999999e-05,1.01e-05,0.0,0 STARLINK-1062,1 44767U 19074BG  22074.87945159  .00001010  00000-0  86743-4 0  9996,2 44767  53.0519 277.5053 0001672  63.8695 296.2466 15.06390655129091,6925.377,95.593,548.4,546.0840000000002,0.0
44767,STARLINK-1062,PAYLOAD,2022-03-16 06:39:38,15.0639399,0.0001644,53.0519,275.7181,65.4235,294.6925,0.00020847,2.824e-05,0.0,0 STARLINK-1062,1 44767U 19074BG  22075.27753367  .00002824  00000-0  20847-3 0  9995,2 44767  53.0519 275.7181 0001644  65.4235 294.6925 15.06393990128984,6925.3669999999975,95.593,548.371,546.0930000000002,0.0
44767,STARLINK-1062,PAYLOAD,2022-03-16 17:48:25,15.06398478,0.0001662,53.052,273.6329,65.7218,294.3944,0.0002723999999999,3.778e-05,0.0,0 STARLINK-1062,1 44767U 19074BG  22075.74196210  .00003778  00000-0  27240-3 0  9998,2 44767  53.0520 273.6329 0001662  65.7218 294.3944 15.06398478129054,6925.353,95.592,548.369,546.067,0.0
44767,STARLINK-1062,PAYLOAD,2022-03-16 22:35:02,15.06400481,0.0001619,53.0523,272.7391,66.4296,293.6863,0.00025647,3.541e-05,0.0,0 STARLINK-1062,1 44767U 19074BG  22075.94100192  .00003541  00000-0  25647-3 0  9991,2 44767  53.0523 272.7391 0001619  66.4296 293.6863 15.06400481129254,6925.347,95.592,548.3330000000002,546.091,0.0
44767,STARLINK-1062,PAYLOAD,2022-03-17 06:32:44,15.06404726,0.0001567,53.0524,271.25,66.4535,293.6618,0.00035391,4.994e-05,0.0,0 STARLINK-1062,1 44767U 19074BG  22076.27273467  .00004994  00000-0  35391-3 0  9994,2 44767  53.0524 271.2500 0001567  66.4535 293.6618 15.06404726129130,6925.334,95.592,548.284,546.114,0.0
44767,STARLINK-1062,PAYLOAD,2022-03-17 19:17:03,15.06389365,0.0001613,53.0527,268.8671,65.7299,294.3858,7.5029e-05,8.36e-06,0.0,0 STARLINK-1062,1 44767U 19074BG  22076.80351738  .00000836  00000-0  75029-4 0  9995,2 44767  53.0527 268.8671 0001613  65.7299 294.3858 15.06389365129219,6925.380999999999,95.593,548.363,546.129,0.0
44767,STARLINK-1062,PAYLOAD,2022-03-17 22:28:08,15.06391344,0.0001621,53.0528,268.2714,65.2586,294.8571,9.5447e-05,1.14e-05,0.0,0 STARLINK-1062,1 44767U 19074BG  22076.93621058  .00001140  00000-0  95447-4 0  9999,2 44767  53.0528 268.2714 0001621  65.2586 294.8571 15.06391344129403,6925.375,95.593,548.363,546.117,0.0
44767,STARLINK-1062,PAYLOAD,2022-03-18 12:47:59,15.06395903,0.000158,53.0538,265.591,64.7997,295.3155,0.00011226,1.391e-05,0.0,0 STARLINK-1062,1 44767U 19074BG  22077.53333170  .00001391  00000-0  11226-3 0  9991,2 44767  53.0538 265.5910 0001580  64.7997 295.3155 15.06395903129326,6925.361,95.592,548.32,546.132,0.0
44767,STARLINK-1062,PAYLOAD,2022-03-18 19:10:09,15.06400307,0.0001571999999999,53.0536,264.3989,62.112,298.0028,8.5324e-05,9.9e-06,0.0,0 STARLINK-1062,1 44767U 19074BG  22077.79871638  .00000990  00000-0  85324-4 0  9990,2 44767  53.0536 264.3989 0001572  62.1120 298.0028 15.06400307129366,6925.348000000001,95.592,548.3009999999998,546.124,0.0
44767,STARLINK-1062,PAYLOAD,2022-03-18 22:21:13,15.06400702,0.000158,53.0536,263.8032,62.0781,298.0368,8.238299999999999e-05,9.46e-06,0.0,0 STARLINK-1062,1 44767U 19074BG  22077.93140946  .00000946  00000-0  82383-4 0  9990,2 44767  53.0536 263.8032 0001580  62.0781 298.0368 15.06400702129557,6925.346,95.592,548.306,546.117,0.0
44767,STARLINK-1062,PAYLOAD,2022-03-19 12:41:05,15.06393595,0.000168,53.0534,261.1242,49.4658,310.6477,0.00010783,1.325e-05,0.0,0 STARLINK-1062,1 44767U 19074BG  22078.52853420  .00001325  00000-0  10783-3 0  9990,2 44767  53.0534 261.1242 0001680  49.4658 310.6477 15.06393595129476,6925.368,95.593,548.3969999999998,546.07,0.0
44767,STARLINK-1062,PAYLOAD,2022-03-19 19:03:15,15.06391346,0.0001381,53.0542,259.9299,69.1097,291.004,6.402300000000001e-05,6.72e-06,0.0,0 STARLINK-1062,1 44767U 19074BG  22078.79392410  .00000672  00000-0  64023-4 0  9997,2 44767  53.0542 259.9299 0001381  69.1097 291.0040 15.06391346129689,6925.375,95.593,548.196,546.284,0.0
44767,STARLINK-1062,PAYLOAD,2022-03-20 10:58:38,15.06395531,0.0001505,53.0534,256.9526,63.9488,296.1656,7.4215e-05,8.24e-06,0.0,0 STARLINK-1062,1 44767U 19074BG  22079.45739330  .00000824  00000-0  74215-4 0  9990,2 44767  53.0534 256.9526 0001505  63.9488 296.1656 15.06395531129616,6925.361999999999,95.592,548.27,546.185,0.0
44767,STARLINK-1062,PAYLOAD,2022-03-20 18:56:20,15.06400609,0.0001524,53.0526,255.4631,63.2903,296.8242,0.00012023,1.51e-05,0.0,0 STARLINK-1062,1 44767U 19074BG  22079.78912323  .00001510  00000-0  12023-3 0  9992,2 44767  53.0526 255.4631 0001524  63.2903 296.8242 15.06400609129839,6925.347,95.592,548.2669999999998,546.156,0.0
44767,STARLINK-1062,PAYLOAD,2022-03-21 10:51:43,15.06407009,0.0001531999999999,53.0526,252.4845,63.7997,296.3149,0.00018766,2.515e-05,0.0,0 STARLINK-1062,1 44767U 19074BG  22080.45258793  .00002515  00000-0  18766-3 0  9998,2 44767  53.0526 252.4845 0001532  63.7997 296.3149 15.06407009129764,6925.3269999999975,95.592,548.253,546.131,0.0
44767,STARLINK-1062,PAYLOAD,2022-03-21 18:49:25,15.06401123,0.0001411,53.0526,250.997,61.1866,298.9264,9.0252e-05,1.063e-05,0.0,0 STARLINK-1062,1 44767U 19074BG  22080.78432303  .00001063  00000-0  90252-4 0  9993,2 44767  53.0526 250.9970 0001411  61.1866 298.9264 15.06401123129812,6925.345,95.592,548.187,546.2330000000002,0.0
